OBJECT_NAME,OBJECT_ID,EPOCH,MEAN_MOTION,ECCENTRICITY,INCLINATION,RA_OF_ASC_NODE,ARG_OF_PERICENTER,MEAN_ANOMALY,EPHEMERIS_TYPE,CLASSIFICATION_TYPE,NORAD_CAT_ID,ELEMENT_SET_NO,REV_AT_EPOCH,BSTAR,MEAN_MOTION_DOT,MEAN_MOTION_DDOT
ALOS-2,2014-029A,2026-06-19T21:53:26.712672,14.79476310,.00016808,97.9223,268.0367,91.1971,268.9433,0,U,39766,999,65198,.16672729E-3,.1194E-4,0
KAZEOSAT 2,2014-033A,2026-06-19T22:11:12.092928,14.85475305,.0007586,97.5402,10.3912,319.9151,40.1505,0,U,40010,999,64936,.12491182E-3,.1028E-4,0
HODOYOSHI-4,2014-033B,2026-06-19T22:12:33.671808,14.88132030,.00223412,97.5450,355.6149,298.7028,61.1944,0,U,40011,999,64921,.11378007E-3,.999E-5,0
DEIMOS-2,2014-033D,2026-06-19T22:18:43.519104,14.93730700,.00013742,97.5817,45.3217,57.5447,302.5906,0,U,40013,999,63813,.13159379E-3,.1339E-4,0
HODOYOSHI-3,2014-033F,2026-06-19T08:10:32.225664,14.85392088,.00324885,97.6420,333.2944,350.1791,9.8786,0,U,40015,999,64794,.93398962E-4,.758E-5,0
SPOT 7,2014-034A,2026-06-19T22:06:26.286912,14.60959447,.00012604,98.0623,233.3427,95.6958,264.4387,0,U,40053,999,63753,.19545228E-4,.5E-6,0
SKYSAT-B,2014-037D,2026-06-19T14:42:56.089152,14.88032940,.00041603,98.3840,129.7164,271.3605,88.7133,0,U,40072,999,64632,.11178561E-3,.965E-5,0
WORLDVIEW-3 (WV-3),2014-048A,2026-06-19T22:19:08.049792,14.85025726,.00007663,97.8566,245.7250,22.1479,337.9769,0,U,40115,999,64231,.79730038E-4,.627E-5,0
GAOFEN-2,2014-049A,2026-06-19T22:43:08.135616,14.80901192,.00063315,98.0104,235.1514,215.8222,144.2566,0,U,40118,999,63964,.83460392E-4,.592E-5,0
YAOGAN-21,2014-053A,2026-06-19T21:59:00.682368,15.26404257,.00098817,97.1469,211.0345,86.2122,274.0247,0,U,40143,999,65537,.21542145E-3,.5545E-4,0
YAOGAN-22,2014-063A,2026-06-19T20:20:21.884928,13.15531021,.00064063,100.7728,322.1649,179.3860,180.7260,0,U,40275,999,56016,.58300351E-4,-.25E-6,0
ASNARO,2014-070A,2026-06-19T22:12:18.835200,15.19465002,.00059287,97.3448,246.9651,156.2046,203.9464,0,U,40298,999,64442,.23084549E-3,.4831E-4,0
YAOGAN-24,2014-072A,2026-06-19T22:17:37.930272,14.76224265,.00125638,98.1499,308.2901,253.8611,106.1216,0,U,40310,999,62412,.31272607E-4,.163E-5,0
CBERS 4,2014-079A,2026-06-19T23:09:09.508032,14.35509093,.00017377,98.3525,227.7092,62.3889,297.7473,0,U,40336,999,60435,-.1922383E-4,-.98E-6,0
YAOGAN-26,2014-088A,2026-06-19T23:29:39.617664,15.47440323,.00057672,97.0648,171.1225,61.9630,298.2204,0,U,40362,999,63813,.29366014E-3,.14982E-3,0
SMAP,2015-003A,2026-06-19T22:50:26.628576,14.63368561,.00013556,98.1275,178.0071,96.6881,263.4476,0,U,40376,999,60802,.67811767E-4,.303E-5,0
KOMPSAT-3A,2015-014A,2026-06-19T22:42:37.117152,15.54102385,.0056747,97.6889,162.5107,164.4913,195.8095,0,U,40536,999,62224,.33675319E-3,.23373E-3,0
SENTINEL-2A,2015-028A,2026-06-19T22:36:25.979904,14.30815732,.00011083,98.5681,245.7546,92.3311,267.7999,0,U,40697,999,57412,.14156461E-4,-.7E-7,0
GAOFEN-8,2015-030A,2026-06-19T22:27:22.981824,15.46042216,.00089553,97.6904,4.4707,176.6099,183.5212,0,U,40701,999,61187,.41689904E-3,.20325E-3,0
CARBONITE 1 (CBNT-1),2015-032D,2026-06-19T22:44:47.808384,14.83593589,.00130654,97.6509,348.8981,288.4249,71.5545,0,U,40718,999,58975,.1253238E-3,.983E-5,0
YAOGAN-27,2015-040A,2026-06-19T22:00:59.136768,13.16070942,.00077499,100.1157,157.1818,203.6350,156.4409,0,U,40878,999,51802,.1989466E-3,.33E-6,0
GAOFEN-9 01,2015-047A,2026-06-19T23:08:20.114016,14.82888195,.00285623,97.6279,206.5328,129.0871,231.2891,0,U,40894,999,58060,.94938112E-4,.724E-5,0
YAOGAN-28,2015-064A,2026-06-19T22:38:13.807968,15.27449248,.00108911,97.3083,309.1486,173.6134,186.5246,0,U,41026,999,59110,.20255987E-3,.5377E-4,0
YAOGAN-29,2015-069A,2026-06-19T22:39:21.754656,14.83084764,.00024782,98.0022,199.5814,50.0933,310.0497,0,U,41038,999,57103,-.42345415E-4,-.399E-5,0
KENT RIDGE 1,2015-077B,2026-06-19T14:04:23.532672,15.23144229,.00082501,14.9791,248.1477,272.4275,87.5102,0,U,41167,999,58146,.10530968E-3,.3326E-4,0
GAOFEN-4,2015-083A,2026-06-19T21:56:02.409792,1.00273444,.0004244,0.3657,83.7526,119.1948,139.8810,0,U,41194,999,3855,0,-.34E-5,0
JASON-3,2016-002A,2026-06-19T22:53:52.930176,12.87628098,.00084839,66.0406,120.0178,272.6537,87.3510,0,U,41240,999,48760,.49792616E-4,-.5E-6,0
SENTINEL-3A,2016-011A,2026-06-19T22:50:20.012928,14.26733280,.0001415,98.6249,238.2957,99.4207,260.7134,0,U,41335,999,53845,.29063891E-4,.27E-6,0
ZIYUAN 3-02 (ZY 3-02),2016-033A,2026-06-19T22:51:16.548768,15.21201261,.00123644,97.3832,246.6745,280.8010,79.1833,0,U,41556,999,55840,.19472973E-3,.4282E-4,0
CARTOSAT-2C,2016-040A,2026-06-19T23:00:25.897248,15.19207543,.00102544,97.4479,230.8987,122.3111,237.9118,0,U,41599,999,55413,.11021906E-3,.2254E-4,0
