ALOS-2                  
1 39766U 14029A   26170.91211473  .00001194  00000+0  16673-3 0  9991
2 39766  97.9223 268.0367 0001680  91.1971 268.9433 14.79476310651986
KAZEOSAT 2              
1 40010U 14033A   26170.92444552  .00001028  00000+0  12491-3 0  9997
2 40010  97.5402  10.3912 0007586 319.9151  40.1505 14.85475305649360
HODOYOSHI-4             
1 40011U 14033B   26170.92538972  .00000999  00000+0  11378-3 0  9997
2 40011  97.5450 355.6149 0022341 298.7028  61.1944 14.88132030649216
DEIMOS-2                
1 40013U 14033D   26170.92967036  .00001339  00000+0  13159-3 0  9994
2 40013  97.5817  45.3217 0001374  57.5447 302.5906 14.93730700638136
HODOYOSHI-3             
1 40015U 14033F   26170.34065076  .00000758  00000+0  93399-4 0  9994
2 40015  97.6420 333.2944 0032488 350.1791   9.8786 14.85392088647945
SPOT 7                  
1 40053U 14034A   26170.92113758  .00000050  00000+0  19545-4 0  9998
2 40053  98.0623 233.3427 0001260  95.6958 264.4387 14.60959447637534
SKYSAT-B                
1 40072U 14037D   26170.61314918  .00000965  00000+0  11179-3 0  9998
2 40072  98.3840 129.7164 0004160 271.3605  88.7133 14.88032940646322
WORLDVIEW-3 (WV-3)      
1 40115U 14048A   26170.92995428  .00000627  00000+0  79730-4 0  9996
2 40115  97.8566 245.7250 0000766  22.1479 337.9769 14.85025726642313
GAOFEN-2                
1 40118U 14049A   26170.94662194  .00000592  00000+0  83460-4 0  9999
2 40118  98.0104 235.1514 0006331 215.8222 144.2566 14.80901192639645
YAOGAN-21               
1 40143U 14053A   26170.91598012  .00005545  00000+0  21542-3 0  9991
2 40143  97.1469 211.0345 0009881  86.2122 274.0247 15.26404257655371
YAOGAN-22               
1 40275U 14063A   26170.84747552 -.00000025  00000+0  58300-4 0  9997
2 40275 100.7728 322.1649 0006406 179.3860 180.7260 13.15531021560166
ASNARO                  
1 40298U 14070A   26170.92521800  .00004831  00000+0  23085-3 0  9994
2 40298  97.3448 246.9651 0005928 156.2046 203.9464 15.19465002644422
YAOGAN-24               
1 40310U 14072A   26170.92891123  .00000163  00000+0  31273-4 0  9992
2 40310  98.1499 308.2901 0012563 253.8611 106.1216 14.76224265624127
CBERS 4                 
1 40336U 14079A   26170.96469338 -.00000098  00000+0 -19224-4 0  9991
2 40336  98.3525 227.7092 0001737  62.3889 297.7473 14.35509093604359
YAOGAN-26               
1 40362U 14088A   26170.97893076  .00014982  00000+0  29366-3 0  9993
2 40362  97.0648 171.1225 0005767  61.9630 298.2204 15.47440323638131
SMAP                    
1 40376U 15003A   26170.95169709  .00000303  00000+0  67812-4 0  9994
2 40376  98.1275 178.0071 0001355  96.6881 263.4476 14.63368561608021
KOMPSAT-3A              
1 40536U 15014A   26170.94626293  .00023373  00000+0  33675-3 0  9990
2 40536  97.6889 162.5107 0056747 164.4913 195.8095 15.54102385622243
SENTINEL-2A             
1 40697U 15028A   26170.94196736 -.00000007  00000+0  14156-4 0  9991
2 40697  98.5681 245.7546 0001108  92.3311 267.7999 14.30815732574129
GAOFEN-8                
1 40701U 15030A   26170.93568266  .00020325  00000+0  41690-3 0  9996
2 40701  97.6904   4.4707 0008955 176.6099 183.5212 15.46042216611872
CARBONITE 1 (CBNT-1)    
1 40718U 15032D   26170.94777556  .00000983  00000+0  12532-3 0  9992
2 40718  97.6509 348.8981 0013065 288.4249  71.5545 14.83593589589757
YAOGAN-27               
1 40878U 15040A   26170.91735112  .00000033  00000+0  19895-3 0  9992
2 40878 100.1157 157.1818 0007749 203.6350 156.4409 13.16070942518029
GAOFEN-9 01             
1 40894U 15047A   26170.96412169  .00000724  00000+0  94938-4 0  9995
2 40894  97.6279 206.5328 0028562 129.0871 231.2891 14.82888195580603
YAOGAN-28               
1 41026U 15064A   26170.94321537  .00005377  00000+0  20256-3 0  9998
2 41026  97.3083 309.1486 0010891 173.6134 186.5246 15.27449248591104
YAOGAN-29               
1 41038U 15069A   26170.94400179 -.00000399  00000+0 -42345-4 0  9991
2 41038  98.0022 199.5814 0002478  50.0933 310.0497 14.83084764571032
KENT RIDGE 1            
1 41167U 15077B   26170.58638348  .00003326  00000+0  10531-3 0  9996
2 41167  14.9791 248.1477 0008250 272.4275  87.5102 15.23144229581469
GAOFEN-4                
1 41194U 15083A   26170.91391678 -.00000340  00000+0  00000+0 0  9992
2 41194   0.3657  83.7526 0004244 119.1948 139.8810  1.00273444 38556
JASON-3                 
1 41240U 16002A   26170.95408484 -.00000050  00000+0  49793-4 0  9999
2 41240  66.0406 120.0178 0008483 272.6537  87.3510 12.87628098487609
SENTINEL-3A             
1 41335U 16011A   26170.95162052  .00000027  00000+0  29064-4 0  9994
2 41335  98.6249 238.2957 0001415  99.4207 260.7134 14.26733280538458
ZIYUAN 3-02 (ZY 3-02)   
1 41556U 16033A   26170.95227487  .00004282  00000+0  19473-3 0  9996
2 41556  97.3832 246.6745 0012364 280.8010  79.1833 15.21201261558408
CARTOSAT-2C             
1 41599U 16040A   26170.95863307  .00002254  00000+0  11022-3 0  9997
2 41599  97.4479 230.8987 0010254 122.3111 237.9118 15.19207543554136
